{
  "type": "FeatureCollection",
  "features": [
    {
      "type": "Feature",
      "properties": {
        "norad_id": 36828,
        "name": "BEIDOU-2 IGSO-1 (C06)",
        "group": "beidou",
        "lat": 5.091324164256774,
        "lon": 168.3086151133178,
        "alt_km": 35972.438025882664,
        "timestamp": "2025-12-13T22:39:29.974796+00:00",
        "meta_object_name": "BEIDOU-2 IGSO-1 (C06)",
        "meta_object_id": "2010-036A",
        "meta_epoch": "2025-12-12T21:56:21.549120",
        "meta_mean_motion": 1.00276081,
        "meta_eccentricity": 0.00512083,
        "meta_inclination": 54.2861,
        "meta_ra_of_asc_node": 164.6456,
        "meta_arg_of_pericenter": 215.8019,
        "meta_mean_anomaly": 138.385,
        "meta_ephemeris_type": 0,
        "meta_classification_type": "U",
        "meta_norad_cat_id": 36828,
        "meta_element_set_no": 999,
        "meta_rev_at_epoch": 5622,
        "meta_bstar": 0,
        "meta_mean_motion_dot": -3.7e-07,
        "meta_mean_motion_ddot": 0,
        "tle_line1": "1 36828U 10036A   25346.91413830 -.00000037  00000+0  00000+0 0  9995",
        "tle_line2": "2 36828  54.2861 164.6456 0051208 215.8019 138.3850  1.00276081 56227"
      },
      "geometry": {
        "type": "Point",
        "coordinates": [
          168.3086151133178,
          5.091324164256774
        ]
      }
    },
    {
      "type": "Feature",
      "properties": {
        "norad_id": 37210,
        "name": "BEIDOU-2 G4 (C04)",
        "group": "beidou",
        "lat": 1.4387815593576576,
        "lon": -137.22774258600194,
        "alt_km": 35750.0471049424,
        "timestamp": "2025-12-13T22:39:29.974820+00:00",
        "meta_object_name": "BEIDOU-2 G4 (C04)",
        "meta_object_id": "2010-057A",
        "meta_epoch": "2025-12-13T07:47:51.710784",
        "meta_mean_motion": 1.00271593,
        "meta_eccentricity": 0.00108145,
        "meta_inclination": 3.1864,
        "meta_ra_of_asc_node": 69.9376,
        "meta_arg_of_pericenter": 191.2025,
        "meta_mean_anomaly": 98.158,
        "meta_ephemeris_type": 0,
        "meta_classification_type": "U",
        "meta_norad_cat_id": 37210,
        "meta_element_set_no": 999,
        "meta_rev_at_epoch": 5542,
        "meta_bstar": 0,
        "meta_mean_motion_dot": -9.8e-07,
        "meta_mean_motion_ddot": 0,
        "tle_line1": "1 37210U 10057A   25347.32490406 -.00000098  00000+0  00000+0 0  9991",
        "tle_line2": "2 37210   3.1864  69.9376 0010814 191.2025  98.1580  1.00271593 55426"
      },
      "geometry": {
        "type": "Point",
        "coordinates": [
          -137.22774258600194,
          1.4387815593576576
        ]
      }
    },
    {
      "type": "Feature",
      "properties": {
        "norad_id": 37256,
        "name": "BEIDOU-2 IGSO-2 (C07)",
        "group": "beidou",
        "lat": -46.23381782483051,
        "lon": 164.6073892459679,
        "alt_km": 35629.97285889977,
        "timestamp": "2025-12-13T22:39:29.974836+00:00",
        "meta_object_name": "BEIDOU-2 IGSO-2 (C07)",
        "meta_object_id": "2010-068A",
        "meta_epoch": "2025-12-03T17:22:36.027840",
        "meta_mean_motion": 1.0028872,
        "meta_eccentricity": 0.00492449,
        "meta_inclination": 47.9042,
        "meta_ra_of_asc_node": 274.2614,
        "meta_arg_of_pericenter": 216.1411,
        "meta_mean_anomaly": 310.24,
        "meta_ephemeris_type": 0,
        "meta_classification_type": "U",
        "meta_norad_cat_id": 37256,
        "meta_element_set_no": 999,
        "meta_rev_at_epoch": 5483,
        "meta_bstar": 0,
        "meta_mean_motion_dot": -2.25e-06,
        "meta_mean_motion_ddot": 0,
        "tle_line1": "1 37256U 10068A   25337.72402810 -.00000225  00000+0  00000+0 0  9990",
        "tle_line2": "2 37256  47.9042 274.2614 0049244 216.1411 310.2400  1.00288720 54834"
      },
      "geometry": {
        "type": "Point",
        "coordinates": [
          164.6073892459679,
          -46.23381782483051
        ]
      }
    },
    {
      "type": "Feature",
      "properties": {
        "norad_id": 37384,
        "name": "BEIDOU-2 IGSO-3 (C08)",
        "group": "beidou",
        "lat": 44.19029934435514,
        "lon": -168.95174352157915,
        "alt_km": 35706.000303846,
        "timestamp": "2025-12-13T22:39:29.974852+00:00",
        "meta_object_name": "BEIDOU-2 IGSO-3 (C08)",
        "meta_object_id": "2011-013A",
        "meta_epoch": "2025-12-12T16:08:36.948768",
        "meta_mean_motion": 1.0027095,
        "meta_eccentricity": 0.00354506,
        "meta_inclination": 62.1436,
        "meta_ra_of_asc_node": 41.9157,
        "meta_arg_of_pericenter": 187.5119,
        "meta_mean_anomaly": 201.8968,
        "meta_ephemeris_type": 0,
        "meta_classification_type": "U",
        "meta_norad_cat_id": 37384,
        "meta_element_set_no": 999,
        "meta_rev_at_epoch": 5379,
        "meta_bstar": 0,
        "meta_mean_motion_dot": -1.97e-06,
        "meta_mean_motion_ddot": 0,
        "tle_line1": "1 37384U 11013A   25346.67264987 -.00000197  00000+0  00000+0 0  9996",
        "tle_line2": "2 37384  62.1436  41.9157 0035450 187.5119 201.8968  1.00270950 53797"
      },
      "geometry": {
        "type": "Point",
        "coordinates": [
          -168.95174352157915,
          44.19029934435514
        ]
      }
    },
    {
      "type": "Feature",
      "properties": {
        "norad_id": 37763,
        "name": "BEIDOU-2 IGSO-4 (C09)",
        "group": "beidou",
        "lat": -7.060603574875541,
        "lon": 162.26743600032776,
        "alt_km": 36101.53310234744,
        "timestamp": "2025-12-13T22:39:29.974866+00:00",
        "meta_object_name": "BEIDOU-2 IGSO-4 (C09)",
        "meta_object_id": "2011-038A",
        "meta_epoch": "2025-12-10T12:04:03.489024",
        "meta_mean_motion": 1.00284678,
        "meta_eccentricity": 0.01490344,
        "meta_inclination": 54.5829,
        "meta_ra_of_asc_node": 167.3658,
        "meta_arg_of_pericenter": 230.2355,
        "meta_mean_anomaly": 317.2212,
        "meta_ephemeris_type": 0,
        "meta_classification_type": "U",
        "meta_norad_cat_id": 37763,
        "meta_element_set_no": 999,
        "meta_rev_at_epoch": 5275,
        "meta_bstar": 0,
        "meta_mean_motion_dot": 3.6e-07,
        "meta_mean_motion_ddot": 0,
        "tle_line1": "1 37763U 11038A   25344.50281816  .00000036  00000+0  00000+0 0  9995",
        "tle_line2": "2 37763  54.5829 167.3658 0149034 230.2355 317.2212  1.00284678 52751"
      },
      "geometry": {
        "type": "Point",
        "coordinates": [
          162.26743600032776,
          -7.060603574875541
        ]
      }
    },
    {
      "type": "Feature",
      "properties": {
        "norad_id": 37948,
        "name": "BEIDOU-2 IGSO-5 (C10)",
        "group": "beidou",
        "lat": -41.23611302359512,
        "lon": 145.79282172633285,
        "alt_km": 35350.33411060203,
        "timestamp": "2025-12-13T22:39:29.974879+00:00",
        "meta_object_name": "BEIDOU-2 IGSO-5 (C10)",
        "meta_object_id": "2011-073A",
        "meta_epoch": "2025-12-12T18:24:47.608416",
        "meta_mean_motion": 1.00291151,
        "meta_eccentricity": 0.01101752,
        "meta_inclination": 48.0199,
        "meta_ra_of_asc_node": 273.857,
        "meta_arg_of_pericenter": 222.308,
        "meta_mean_anomaly": 314.7254,
        "meta_ephemeris_type": 0,
        "meta_classification_type": "U",
        "meta_norad_cat_id": 37948,
        "meta_element_set_no": 999,
        "meta_rev_at_epoch": 5126,
        "meta_bstar": 0,
        "meta_mean_motion_dot": -2.21e-06,
        "meta_mean_motion_ddot": 0,
        "tle_line1": "1 37948U 11073A   25346.76721769 -.00000221  00000+0  00000+0 0  9992",
        "tle_line2": "2 37948  48.0199 273.8570 0110175 222.3080 314.7254  1.00291151 51268"
      },
      "geometry": {
        "type": "Point",
        "coordinates": [
          145.79282172633285,
          -41.23611302359512
        ]
      }
    },
    {
      "type": "Feature",
      "properties": {
        "norad_id": 38091,
        "name": "BEIDOU-2 G5 (C05)",
        "group": "beidou",
        "lat": 2.425012100116395,
        "lon": 121.49703038635596,
        "alt_km": 35837.526849912116,
        "timestamp": "2025-12-13T22:39:29.974893+00:00",
        "meta_object_name": "BEIDOU-2 G5 (C05)",
        "meta_object_id": "2012-008A",
        "meta_epoch": "2025-12-13T03:27:21.712320",
        "meta_mean_motion": 1.00275839,
        "meta_eccentricity": 0.00125761,
        "meta_inclination": 3.1106,
        "meta_ra_of_asc_node": 70.7104,
        "meta_arg_of_pericenter": 227.6994,
        "meta_mean_anomaly": 254.3073,
        "meta_ephemeris_type": 0,
        "meta_classification_type": "U",
        "meta_norad_cat_id": 38091,
        "meta_element_set_no": 999,
        "meta_rev_at_epoch": 5050,
        "meta_bstar": 0,
        "meta_mean_motion_dot": 6.8e-07,
        "meta_mean_motion_ddot": 0,
        "tle_line1": "1 38091U 12008A   25347.14400130  .00000068  00000+0  00000+0 0  9998",
        "tle_line2": "2 38091   3.1106  70.7104 0012576 227.6994 254.3073  1.00275839 50502"
      },
      "geometry": {
        "type": "Point",
        "coordinates": [
          121.49703038635596,
          2.425012100116395
        ]
      }
    }
  ]
}